     2.100          NAVIGATION                              RINEX VERSION / TYPE
fic2rin                                 03/26/2015 00:30:39 PGM / RUN BY / DATE
                                                            END OF HEADER
14 15  3 25 19 59 44.0  .757537782192D-04 -.272848410532D-11  .000000000000D+00
     .180000000000D+02  .790000000000D+02  .439768318116D-08 -.831203026691D+00
     .419467687607D-05  .789357838221D-02  .946596264839D-05  .515357855225D+04
     .331184000000D+06 -.763684511185D-07  .136389707364D+01  .132247805595D-06
     .966996192781D+00  .203312500000D+03 -.197507971695D+01 -.805533553706D-08
    -.125005206969D-10  .100000000000D+01  .183700000000D+04  .000000000000D+00
     .240000000000D+01  .000000000000D+00 -.931322574615D-08  .180000000000D+02
     .324006000000D+06  .400000000000D+01
24 15  3 25 19 59 44.0 -.455738045275D-04 -.568434188608D-12  .000000000000D+00
     .360000000000D+02  .469062500000D+02  .492520515456D-08 -.262917140793D+01
     .237114727497D-05  .317434943281D-02  .428408384323D-05  .515368054771D+04
     .331184000000D+06  .000000000000D+00  .232041584860D+01 -.633299350739D-07
     .953942459190D+00  .294250000000D+03  .332279558537D+00 -.839713548868D-08
     .564309220030D-10  .100000000000D+01  .183700000000D+04  .000000000000D+00
     .240000000000D+01  .000000000000D+00  .232830643654D-08  .360000000000D+02
     .324006000000D+06  .400000000000D+01
 1 15  3 25 20  0  0.0 -.755116343498D-05  .454747350886D-12  .000000000000D+00
     .340000000000D+02 -.490625000000D+01  .456197573889D-08 -.281761024267D+01
    -.188127160072D-06  .400821340736D-02  .743754208088D-05  .515366303825D+04
     .331200000000D+06  .931322574615D-08 -.799986786249D+00 -.130385160446D-07
     .961934480135D+00  .238125000000D+03  .382292606627D+00 -.799140430264D-08
     .298941023522D-09  .100000000000D+01  .183700000000D+04  .000000000000D+00
     .240000000000D+01  .000000000000D+00  .558793544769D-08  .340000000000D+02
     .324006000000D+06  .400000000000D+01
 2 15  3 25 20  0  0.0  .555755104870D-03  .227373675443D-11  .000000000000D+00
     .200000000000D+02 -.246875000000D+01  .502020911186D-08 -.230796205332D+01
    -.158324837685D-06  .145366425859D-01  .670365989208D-05  .515378635216D+04
     .331200000000D+06  .894069671631D-07 -.836179729168D+00 -.130385160446D-06
     .940527503329D+00  .238625000000D+03 -.229424644585D+01 -.811569519414D-08
     .368943939425D-09  .100000000000D+01  .183700000000D+04  .000000000000D+00
     .240000000000D+01  .000000000000D+00 -.204890966415D-07  .200000000000D+02
     .324006000000D+06  .400000000000D+01
 3 15  3 25 20  0  0.0  .270657707006D-03  .159161572810D-10  .000000000000D+00
     .410000000000D+02 -.781250000000D+01  .464983654150D-08 -.673588365956D+00
    -.346451997757D-06  .939654884860D-03  .792555510998D-05  .515371690941D+04
     .331200000000D+06  .353902578354D-07  .240309300178D+00 -.447034835815D-07
     .959775847957D+00  .222625000000D+03 -.283760916083D+01 -.807462205471D-08
    -.148220459691D-09  .100000000000D+01  .183700000000D+04  .000000000000D+00
     .240000000000D+01  .000000000000D+00  .139698386192D-08  .410000000000D+02
     .324006000000D+06  .400000000000D+01
 4 15  3 25 20  0  0.0 -.971928238869D-05 -.795807864051D-12  .000000000000D+00
     .520000000000D+02 -.678125000000D+01  .502163774280D-08 -.304979070688D+01
    -.316649675369D-06  .111123195384D-01  .705756247044D-05  .515371018219D+04
     .331200000000D+06  .782310962677D-07 -.820826930576D+00 -.987201929092D-07
     .939583603714D+00  .230906250000D+03  .105232987939D+01 -.809498004555D-08
     .288940606965D-09  .100000000000D+01  .183700000000D+04  .000000000000D+00
     .240000000000D+01  .000000000000D+00 -.651925802231D-08  .520000000000D+02
     .324006000000D+06  .400000000000D+01
 5 15  3 25 20  0  0.0 -.262236688286D-03  .488853402203D-11  .000000000000D+00
     .410000000000D+02 -.129062500000D+02  .488913222341D-08  .782544680241D-01
    -.547617673874D-06  .401697761845D-02  .827759504318D-05  .515379533768D+04
     .331200000000D+06  .130385160446D-07  .234107790021D+00  .316649675369D-07
     .947026879699D+00  .212093750000D+03  .405234525359D+00 -.825212944860D-08
    -.190007914592D-09  .100000000000D+01  .183700000000D+04  .000000000000D+00
     .240000000000D+01  .000000000000D+00 -.107102096081D-07  .410000000000D+02
     .324006000000D+06  .400000000000D+01
 6 15  3 25 20  0  0.0  .118318945169D-03  .103455022327D-10  .000000000000D+00
     .600000000000D+02 -.278125000000D+01  .464769359509D-08 -.703384816607D+00
    -.139698386192D-06  .235739164054D-03  .702030956745D-05  .515371608543D+04
     .331200000000D+06  .111758708954D-07 -.808507571620D+00 -.409781932831D-07
     .961821643801D+00  .246218750000D+03  .303405633244D+01 -.812390982202D-08
     .210365905441D-09  .100000000000D+01  .183700000000D+04  .000000000000D+00
     .240000000000D+01  .000000000000D+00  .465661287308D-08  .600000000000D+02
     .324006000000D+06  .400000000000D+01
 7 15  3 25 20  0  0.0  .450449530035D-03  .284217094304D-11  .000000000000D+00
     .710000000000D+02  .506250000000D+02  .452661712320D-08  .285477092785D+01
     .261329114437D-05  .812108116224D-02  .501982867718D-05  .515372780800D+04
     .331200000000D+06 -.128522515297D-06  .236021145550D+01 -.819563865662D-07
     .970740670583D+00  .289937500000D+03 -.275673754992D+01 -.807497921244D-08
     .732173355102D-10  .100000000000D+01  .183700000000D+04  .000000000000D+00
     .240000000000D+01  .000000000000D+00 -.111758708954D-07  .710000000000D+02
     .324006000000D+06  .400000000000D+01
 8 15  3 25 20  0  0.0  .188327394426D-04  .341060513165D-12  .000000000000D+00
     .105000000000D+03  .394062500000D+02  .408302721733D-08 -.186470084503D+01
     .211782753468D-05  .144913939293D-01  .428967177868D-05  .515358162308D+04
     .331200000000D+06  .141561031342D-06  .246630474987D+01 -.175088644028D-06
     .994402900918D+00  .313625000000D+03 -.268267830962D+01 -.794961684774D-08
     .216080429189D-09  .100000000000D+01  .183700000000D+04  .000000000000D+00
     .340000000000D+01  .630000000000D+02 -.512227416039D-08  .105000000000D+03
     .324006000000D+06  .400000000000D+01
 9 15  3 25 20  0  0.0 -.121912453324D-03 -.932232069317D-11  .000000000000D+00
     .420000000000D+02  .562187500000D+02  .459733435457D-08 -.112511655650D+01
     .274181365967D-05  .435394351371D-03  .971183180809D-05  .515363185692D+04
     .331200000000D+06 -.111758708954D-07  .128389423711D+01  .223517417908D-07
     .957788366953D+00  .194343750000D+03  .232901416424D+01 -.802962018020D-08
    -.535736601294D-11  .100000000000D+01  .183700000000D+04  .000000000000D+00
     .240000000000D+01  .000000000000D+00  .465661287308D-09  .420000000000D+02
     .324006000000D+06  .400000000000D+01
10 15  3 25 20  0  0.0 -.168490689248D-03 -.136424205266D-11  .000000000000D+00
     .121000000000D+03 -.138750000000D+02  .513128516720D-08  .449763035053D+00
    -.717118382454D-06  .145958589856D-01  .819750130177D-05  .515367161942D+04
     .331200000000D+06 -.167638063431D-06  .249557483528D+00  .147148966789D-06
     .941814860998D+00  .214156250000D+03  .925554007211D+00 -.851892627605D-08
    -.281083136812D-09  .100000000000D+01  .183700000000D+04  .000000000000D+00
     .340000000000D+01  .000000000000D+00 -.325962901115D-08  .121000000000D+03
     .324006000000D+06  .400000000000D+01
12 15  3 25 20  0  0.0  .279507599771D-03  .306954461848D-11  .000000000000D+00
     .870000000000D+02 -.624687500000D+02  .387051836548D-08  .236218374703D+01
    -.340864062309D-05  .545538216829D-02  .680796802044D-05  .515371739769D+04
     .331200000000D+06 -.160187482834D-06 -.285567787854D+01 -.707805156708D-07
     .989707121137D+00  .262750000000D+03  .538250198110D+00 -.780746806953D-08
    -.227509476683D-09  .100000000000D+01  .183700000000D+04  .000000000000D+00
     .240000000000D+01  .000000000000D+00 -.125728547573D-07  .870000000000D+02
     .324006000000D+06  .400000000000D+01
13 15  3 25 20  0  0.0 -.998424366117D-04 -.341060513165D-11  .000000000000D+00
     .105000000000D+03  .690312500000D+02  .416660212713D-08 -.267180241193D+01
     .361911952496D-05  .532550353091D-02  .885687768459D-05  .515368931389D+04
     .331200000000D+06  .204890966415D-07  .139808785663D+01  .689178705215D-07
     .974480844479D+00  .215156250000D+03  .206643837461D+01 -.779175312922D-08
     .546451333320D-10  .100000000000D+01  .183700000000D+04  .000000000000D+00
     .240000000000D+01  .000000000000D+00 -.116415321827D-07  .105000000000D+03
     .324006000000D+06  .400000000000D+01
15 15  3 25 20  0  0.0 -.239763874561D-03 -.216004991671D-11  .000000000000D+00
     .990000000000D+02  .675000000000D+02  .513735684868D-08 -.146054468340D+01
     .328570604324D-05  .710916286334D-02  .867806375027D-05  .515361397743D+04
     .331200000000D+06  .894069671631D-07  .124179371500D+01 -.894069671631D-07
     .933717189572D+00  .194593750000D+03  .389884090843D+00 -.828105922507D-08
     .657170230921D-10  .100000000000D+01  .183700000000D+04  .000000000000D+00
     .240000000000D+01  .000000000000D+00 -.107102096081D-07  .990000000000D+02
     .324006000000D+06  .400000000000D+01
16 15  3 25 20  0  0.0 -.144813675433D-03  .352429196937D-11  .000000000000D+00
     .930000000000D+02 -.653125000000D+02  .398659462910D-08  .226217515028D+00
    -.341236591339D-05  .822561653331D-02  .573322176933D-05  .515377000046D+04
     .331200000000D+06  .987201929092D-07 -.283702482600D+01  .875443220139D-07
     .990258413038D+00  .280468750000D+03  .259897722058D+00 -.806962184643D-08
    -.295726603914D-09  .100000000000D+01  .183700000000D+04  .000000000000D+00
     .240000000000D+01  .000000000000D+00 -.102445483208D-07  .930000000000D+02
     .324006000000D+06  .400000000000D+01
